[{"OBJECT_NAME":"STARLINK-5169","OBJECT_ID":"2022-136K","EPOCH":"2026-03-09T21:58:33.961440","MEAN_MOTION":15.08832508,"ECCENTRICITY":0.00014574,"INCLINATION":53.2191,"RA_OF_ASC_NODE":312.7664,"ARG_OF_PERICENTER":91.4758,"MEAN_ANOMALY":268.6401,"EPHEMERIS_TYPE":0,"CLASSIFICATION_TYPE":"U","NORAD_CAT_ID":54060,"ELEMENT_SET_NO":999,"REV_AT_EPOCH":18730,"BSTAR":6.7009844e-5,"MEAN_MOTION_DOT":7.78e-6,"MEAN_MOTION_DDOT":0},{"OBJECT_NAME":"FENGYUN 1C DEB","OBJECT_ID":"1999-025CCL","EPOCH":"2026-03-06T03:34:06.810816","MEAN_MOTION":14.54899177,"ECCENTRICITY":0.02544592,"INCLINATION":98.8002,"RA_OF_ASC_NODE":183.6648,"ARG_OF_PERICENTER":134.2479,"MEAN_ANOMALY":227.9915,"EPHEMERIS_TYPE":0,"CLASSIFICATION_TYPE":"U","NORAD_CAT_ID":31678,"ELEMENT_SET_NO":999,"REV_AT_EPOCH":98051,"BSTAR":0.0019572837,"MEAN_MOTION_DOT":0.00012976,"MEAN_MOTION_DDOT":0}]
